[{"OBJECT_NAME":"STARLINK-5330","OBJECT_ID":"2023-010P","EPOCH":"2026-03-09T23:31:39.858816","MEAN_MOTION":14.98355549,"ECCENTRICITY":0.00030446,"INCLINATION":70,"RA_OF_ASC_NODE":43.5527,"ARG_OF_PERICENTER":271.5862,"MEAN_ANOMALY":88.4948,"EPHEMERIS_TYPE":0,"CLASSIFICATION_TYPE":"U","NORAD_CAT_ID":55282,"ELEMENT_SET_NO":999,"REV_AT_EPOCH":17282,"BSTAR":-0.00024546115,"MEAN_MOTION_DOT":-3.023e-5,"MEAN_MOTION_DDOT":0},{"OBJECT_NAME":"UM5-EOSAT","OBJECT_ID":"2024-149CR","EPOCH":"2026-03-09T17:21:09.122400","MEAN_MOTION":15.00894746,"ECCENTRICITY":0.00087192,"INCLINATION":97.6855,"RA_OF_ASC_NODE":148.6787,"ARG_OF_PERICENTER":107.8964,"MEAN_ANOMALY":252.3212,"EPHEMERIS_TYPE":0,"CLASSIFICATION_TYPE":"U","NORAD_CAT_ID":60555,"ELEMENT_SET_NO":999,"REV_AT_EPOCH":8529,"BSTAR":0.00036077282,"MEAN_MOTION_DOT":4.537e-5,"MEAN_MOTION_DDOT":0}]
